{"type":"FeatureCollection","name":"Quartiers officiels de la Ville d'Ivry-sur-Seine (WGS84)","features":[{"type":"Feature","properties":{"code":"centre-ville","nom":"Centre-ville"},"geometry":{"type":"Polygon","coordinates":[[[2.395083,48.810584],[2.392645,48.809395],[2.390982,48.810826],[2.389774,48.810031],[2.389596,48.809941],[2.388634,48.810568],[2.386449,48.809248],[2.385247,48.810199],[2.38478,48.809928],[2.384312,48.809384],[2.383611,48.808794],[2.381759,48.810117],[2.380423,48.809535],[2.380037,48.810587],[2.380339,48.810943],[2.380359,48.811157],[2.380252,48.811484],[2.379649,48.812196],[2.379585,48.812437],[2.379672,48.812665],[2.379866,48.812837],[2.380671,48.813205],[2.380887,48.813316],[2.380251,48.813863],[2.381927,48.814554],[2.382209,48.814286],[2.382289,48.814308],[2.383025,48.814609],[2.383636,48.814858],[2.383636,48.814858],[2.383757,48.814912],[2.384057,48.814581],[2.384215,48.814642],[2.38577,48.815245],[2.385303,48.815762],[2.385053,48.816038],[2.38498,48.81612],[2.38504,48.816145],[2.384831,48.816379],[2.384809,48.816401],[2.384778,48.816444],[2.388393,48.817732],[2.395083,48.810584]]]}},{"type":"Feature","properties":{"code":"ivry-port","nom":"Ivry-Port"},"geometry":{"type":"Polygon","coordinates":[[[2.383957,48.82329],[2.388793,48.825007],[2.390151,48.825681],[2.394169,48.822887],[2.395899,48.821878],[2.396857,48.821352],[2.397721,48.820913],[2.400345,48.819849],[2.405609,48.818147],[2.407129,48.817752],[2.407348,48.817697],[2.407637,48.817589],[2.407926,48.817458],[2.408446,48.817203],[2.409177,48.816734],[2.409447,48.816561],[2.409678,48.81636],[2.41008,48.815849],[2.410183,48.815607],[2.410259,48.81516],[2.410239,48.814049],[2.410211,48.813778],[2.410004,48.81287],[2.408977,48.809257],[2.408914,48.808987],[2.408871,48.808814],[2.408862,48.808714],[2.408842,48.808509],[2.404166,48.808112],[2.404161,48.808089],[2.405268,48.804627],[2.404985,48.804287],[2.404368,48.804508],[2.402267,48.80429],[2.402241,48.804039],[2.400617,48.804035],[2.400319,48.804519],[2.400319,48.804519],[2.395083,48.810584],[2.388393,48.817732],[2.383957,48.82329]]]}},{"type":"Feature","properties":{"code":"bertrand-mirabeau","nom":"Louis-Bertrand – Mirabeau"},"geometry":{"type":"Polygon","coordinates":[[[2.380251,48.813863],[2.379925,48.814245],[2.37898,48.81514],[2.378882,48.815095],[2.377889,48.816042],[2.37781,48.816119],[2.377368,48.816425],[2.377257,48.816542],[2.376003,48.817928],[2.375907,48.81805],[2.375613,48.818351],[2.37554,48.818454],[2.375419,48.818616],[2.375237,48.818859],[2.375242,48.81886],[2.37514,48.818993],[2.375134,48.818992],[2.37503,48.819127],[2.375025,48.819126],[2.374923,48.819263],[2.374846,48.819358],[2.374838,48.819356],[2.374792,48.81942],[2.374714,48.819524],[2.374663,48.819591],[2.37459,48.819686],[2.375461,48.819971],[2.380749,48.821699],[2.381505,48.822412],[2.383957,48.82329],[2.388393,48.817732],[2.384778,48.816444],[2.384809,48.816401],[2.384831,48.816379],[2.38504,48.816145],[2.38498,48.81612],[2.385053,48.816038],[2.385303,48.815762],[2.38577,48.815245],[2.384215,48.814642],[2.384057,48.814581],[2.383757,48.814912],[2.383636,48.814858],[2.383636,48.814858],[2.383025,48.814609],[2.382289,48.814308],[2.382209,48.814286],[2.381927,48.814554],[2.380251,48.813863]]]}},{"type":"Feature","properties":{"code":"marat-parmentier","nom":"Marat – Parmentier"},"geometry":{"type":"Polygon","coordinates":[[[2.381759,48.810117],[2.383611,48.808794],[2.384312,48.809384],[2.38478,48.809928],[2.385247,48.810199],[2.386449,48.809248],[2.388634,48.810568],[2.389596,48.809941],[2.389774,48.810031],[2.390982,48.810826],[2.392645,48.809395],[2.392708,48.809422],[2.395083,48.810584],[2.400319,48.804519],[2.399654,48.804321],[2.399552,48.804231],[2.399405,48.803671],[2.398347,48.801686],[2.397353,48.802449],[2.397028,48.802273],[2.397023,48.802256],[2.389511,48.805205],[2.388756,48.805347],[2.387874,48.80559],[2.387901,48.805659],[2.387767,48.805783],[2.387704,48.80577],[2.38716,48.8061],[2.387693,48.806458],[2.387311,48.806738],[2.387237,48.806693],[2.386673,48.807097],[2.385705,48.807683],[2.385074,48.807328],[2.384816,48.807526],[2.383524,48.808438],[2.383331,48.808551],[2.383611,48.808794],[2.381759,48.810117]]]}},{"type":"Feature","properties":{"code":"monmousseau-verollot","nom":"Monmousseau – Vérollot"},"geometry":{"type":"Polygon","coordinates":[[[2.367854,48.808933],[2.367943,48.80888],[2.370878,48.808015],[2.373378,48.808983],[2.375064,48.809635],[2.376247,48.810168],[2.376371,48.81006],[2.377339,48.810497],[2.378367,48.809613],[2.380037,48.810587],[2.380423,48.809535],[2.381759,48.810117],[2.383611,48.808794],[2.383331,48.808551],[2.383524,48.808438],[2.384816,48.807526],[2.385074,48.807328],[2.385705,48.807683],[2.386673,48.807097],[2.387237,48.806693],[2.387311,48.806738],[2.387693,48.806458],[2.38716,48.8061],[2.387704,48.80577],[2.387767,48.805783],[2.387901,48.805659],[2.387874,48.80559],[2.388756,48.805347],[2.389511,48.805205],[2.397023,48.802256],[2.396592,48.801702],[2.396139,48.80119],[2.395018,48.800251],[2.394581,48.799905],[2.393859,48.800402],[2.393703,48.80057],[2.393669,48.800594],[2.393626,48.800622],[2.393609,48.800631],[2.393569,48.800644],[2.393521,48.800652],[2.393504,48.800653],[2.39348,48.80065],[2.393463,48.800643],[2.393439,48.800626],[2.393116,48.800444],[2.393092,48.800431],[2.393062,48.800422],[2.393038,48.800421],[2.393012,48.800421],[2.392968,48.800432],[2.392899,48.800455],[2.392846,48.800467],[2.392746,48.800494],[2.391738,48.799332],[2.391653,48.799374],[2.390751,48.799856],[2.390557,48.799874],[2.390343,48.799918],[2.39016,48.800004],[2.390037,48.800069],[2.390008,48.80014],[2.389619,48.800178],[2.389131,48.800051],[2.38888,48.800297],[2.388611,48.800429],[2.387955,48.800397],[2.38684,48.800341],[2.386653,48.800568],[2.386608,48.800746],[2.38643,48.80138],[2.386303,48.801848],[2.385615,48.804319],[2.383882,48.803776],[2.383352,48.803598],[2.382753,48.803371],[2.382149,48.803037],[2.381389,48.802496],[2.38069,48.802134],[2.379317,48.80142],[2.375761,48.805982],[2.371294,48.804064],[2.371171,48.804032],[2.370247,48.80498],[2.370376,48.80503],[2.369911,48.805276],[2.368723,48.806481],[2.367913,48.807373],[2.367146,48.808093],[2.367121,48.808121],[2.368185,48.808487],[2.367854,48.808933]]]}},{"type":"Feature","properties":{"code":"petit-ivry","nom":"Petit-Ivry"},"geometry":{"type":"Polygon","coordinates":[[[2.364222,48.81113],[2.364212,48.811123],[2.364222,48.81113],[2.364686,48.811442],[2.364989,48.811581],[2.366214,48.811924],[2.364967,48.814038],[2.365087,48.814072],[2.364503,48.815051],[2.364704,48.815112],[2.364643,48.815187],[2.3646,48.815496],[2.364808,48.815563],[2.36465,48.815775],[2.364216,48.816352],[2.367084,48.817226],[2.370213,48.818237],[2.37459,48.819686],[2.374636,48.819627],[2.374714,48.819524],[2.374772,48.819447],[2.374838,48.819356],[2.374846,48.819358],[2.374846,48.819358],[2.374923,48.819263],[2.375025,48.819126],[2.37503,48.819127],[2.37504,48.819112],[2.375134,48.818992],[2.37514,48.818993],[2.375242,48.81886],[2.375237,48.818859],[2.375419,48.818616],[2.37545,48.818577],[2.37554,48.818454],[2.375613,48.818351],[2.375907,48.81805],[2.376003,48.817928],[2.377257,48.816542],[2.377368,48.816425],[2.37781,48.816119],[2.377889,48.816042],[2.378882,48.815095],[2.37898,48.81514],[2.379276,48.81486],[2.379629,48.814525],[2.379899,48.814268],[2.380251,48.813863],[2.380887,48.813316],[2.380671,48.813205],[2.379866,48.812837],[2.379672,48.812665],[2.379585,48.812437],[2.379649,48.812196],[2.380252,48.811484],[2.380359,48.811157],[2.380339,48.810943],[2.380037,48.810587],[2.378367,48.809613],[2.377339,48.810497],[2.376371,48.81006],[2.376247,48.810168],[2.375064,48.809635],[2.373378,48.808983],[2.370878,48.808015],[2.367943,48.80888],[2.36783,48.808935],[2.365466,48.809215],[2.364222,48.81113]]]}}]}